CCSDS_OMM_VERS = 2.0
CREATION_DATE  = 
ORIGINATOR     = 

OBJECT_NAME    = CZ-2C R/B
OBJECT_ID      = 2022-132E
CENTER_NAME    = EARTH
REF_FRAME      = TEME
TIME_SYSTEM    = UTC
MEAN_ELEMENT_THEORY = SGP/SGP4

EPOCH          = 2025-12-18T21:54:36.405504
MEAN_MOTION    = 15.55183824
ECCENTRICITY   = .00222001
INCLINATION    = 97.2937
RA_OF_ASC_NODE = 349.2310
ARG_OF_PERICENTER = 36.2985
MEAN_ANOMALY   = 323.9770

EPHEMERIS_TYPE = 0
CLASSIFICATION_TYPE = U
NORAD_CAT_ID   = 54039
ELEMENT_SET_NO = 999
REV_AT_EPOCH   = 17779
BSTAR          = .40475847E-3
MEAN_MOTION_DOT = .27567E-3
MEAN_MOTION_DDOT = 0

CCSDS_OMM_VERS = 2.0
CREATION_DATE  = 
ORIGINATOR     = 

OBJECT_NAME    = GSLV R/B
OBJECT_ID      = 2022-138AN
CENTER_NAME    = EARTH
REF_FRAME      = TEME
TIME_SYSTEM    = UTC
MEAN_ELEMENT_THEORY = SGP/SGP4

EPOCH          = 2025-12-18T22:36:42.987744
MEAN_MOTION    = 14.96160410
ECCENTRICITY   = .00242257
INCLINATION    = 87.3819
RA_OF_ASC_NODE = 193.3968
ARG_OF_PERICENTER = 85.4281
MEAN_ANOMALY   = 274.9716

EPHEMERIS_TYPE = 0
CLASSIFICATION_TYPE = U
NORAD_CAT_ID   = 54149
ELEMENT_SET_NO = 999
REV_AT_EPOCH   = 17185
BSTAR          = .13845722E-3
MEAN_MOTION_DOT = .1597E-4
MEAN_MOTION_DDOT = 0

CCSDS_OMM_VERS = 2.0
CREATION_DATE  = 
ORIGINATOR     = 

OBJECT_NAME    = XRISM
OBJECT_ID      = 2023-137A
CENTER_NAME    = EARTH
REF_FRAME      = TEME
TIME_SYSTEM    = UTC
MEAN_ELEMENT_THEORY = SGP/SGP4

EPOCH          = 2025-12-18T14:00:37.035072
MEAN_MOTION    = 15.10391159
ECCENTRICITY   = .00077324
INCLINATION    = 31.0025
RA_OF_ASC_NODE = 87.8105
ARG_OF_PERICENTER = 303.9387
MEAN_ANOMALY   = 56.0516

EPHEMERIS_TYPE = 0
CLASSIFICATION_TYPE = U
NORAD_CAT_ID   = 57800
ELEMENT_SET_NO = 999
REV_AT_EPOCH   = 12551
BSTAR          = .23770588E-3
MEAN_MOTION_DOT = .4098E-4
MEAN_MOTION_DDOT = 0

CCSDS_OMM_VERS = 2.0
CREATION_DATE  = 
ORIGINATOR     = 

OBJECT_NAME    = ACS3
OBJECT_ID      = 2024-077B
CENTER_NAME    = EARTH
REF_FRAME      = TEME
TIME_SYSTEM    = UTC
MEAN_ELEMENT_THEORY = SGP/SGP4

EPOCH          = 2025-12-18T21:24:06.672096
MEAN_MOTION    = 13.85760768
ECCENTRICITY   = .00764292
INCLINATION    = 97.2636
RA_OF_ASC_NODE = 307.1233
ARG_OF_PERICENTER = 323.2471
MEAN_ANOMALY   = 36.3464

EPHEMERIS_TYPE = 0
CLASSIFICATION_TYPE = U
NORAD_CAT_ID   = 59588
ELEMENT_SET_NO = 999
REV_AT_EPOCH   = 8299
BSTAR          = .14003183E-1
MEAN_MOTION_DOT = .16414E-3
MEAN_MOTION_DDOT = 0

CCSDS_OMM_VERS = 2.0
CREATION_DATE  = 
ORIGINATOR     = 

OBJECT_NAME    = SZ-21 MODULE
OBJECT_ID      = 2025-246C
CENTER_NAME    = EARTH
REF_FRAME      = TEME
TIME_SYSTEM    = UTC
MEAN_ELEMENT_THEORY = SGP/SGP4

EPOCH          = 2025-12-18T08:31:24.923712
MEAN_MOTION    = 15.62772734
ECCENTRICITY   = .00058547
INCLINATION    = 41.4774
RA_OF_ASC_NODE = 341.7845
ARG_OF_PERICENTER = 290.1533
MEAN_ANOMALY   = 69.8677

EPHEMERIS_TYPE = 0
CLASSIFICATION_TYPE = U
NORAD_CAT_ID   = 66515
ELEMENT_SET_NO = 999
REV_AT_EPOCH   = 532
BSTAR          = .27860354E-3
MEAN_MOTION_DOT = .25551E-3
MEAN_MOTION_DDOT = 0

