CZ-2C R/B               
1 54039U 22132E   25352.91292136  .00027567  00000+0  40476-3 0  9991
2 54039  97.2937 349.2310 0022200  36.2985 323.9770 15.55183824177795
GSLV R/B                
1 54149U 22138AN  25352.94216421  .00001597  00000+0  13846-3 0  9991
2 54149  87.3819 193.3968 0024225  85.4281 274.9716 14.96160410171853
XRISM                   
1 57800U 23137A   25352.58376198  .00004098  00000+0  23771-3 0  9993
2 57800  31.0025  87.8105 0007732 303.9387  56.0516 15.10391159125516
ACS3                    
1 59588U 24077B   25352.89174389  .00016414  00000+0  14003-1 0  9995
2 59588  97.2636 307.1233 0076429 323.2471  36.3464 13.85760768 82994
SZ-21 MODULE            
1 66515U 25246C   25352.35514958  .00025551  00000+0  27860-3 0  9992
2 66515  41.4774 341.7845 0005854 290.1533  69.8677 15.62772734  5326
